APRIZESAT 2             
1 28366U 04025A   26165.91899291  .00000129  00000+0  53666-4 0  9995
2 28366  98.1011 332.0278 0104297 256.7764 102.1773 14.38034995151310
SAUDICOMSAT 1           
1 28369U 04025D   26165.95386116  .00000335  00000+0  87787-4 0  9999
2 28369  98.5771 176.0251 0032794  32.3433 327.9765 14.55472181163807
SAUDICOMSAT 2           
1 28370U 04025E   26165.98590978  .00000219  00000+0  68262-4 0  9995
2 28370  98.6641 178.1698 0054149 266.3042  93.1958 14.49980142159789
APRIZESAT 1             
1 28372U 04025G   26166.02029139  .00000192  00000+0  59318-4 0  9991
2 28372  98.6303 176.6869 0044975 160.3540 199.9400 14.51775985161590
NANOSAT-1               
1 28493U 04049B   26166.14105949  .00000859  00000+0  12047-3 0  9995
2 28493  98.2273 302.7520 0002909 311.8448  48.2514 14.80155842155145
SAUDICOMSAT 7           
1 31119U 07012C   26166.20180804  .00000361  00000+0  73847-4 0  9991
2 31119  98.3778 140.2929 0055150 201.4711 158.4179 14.66108512 22146
SAUDICOMSAT 6           
1 31121U 07012E   26166.17470669  .00000503  00000+0  10584-3 0  9997
2 31121  98.4098 133.6536 0071193 334.0956  25.6687 14.62556066 19898
SAUDICOMSAT 5           
1 31124U 07012H   26166.17802786  .00000520  00000+0  98008-4 0  9996
2 31124  98.3489 141.0162 0048355 130.8883 229.6525 14.68154099 23301
SAUDICOMSAT 3           
1 31125U 07012J   26166.21012617  .00000718  00000+0  12511-3 0  9991
2 31125  98.3143 141.5973 0040324  59.2974 301.2195 14.70702628 24533
SAUDICOMSAT 4           
1 31127U 07012L   26166.17328972  .00000387  00000+0  81067-4 0  9997
2 31127  98.3983 138.7027 0062055 264.6574  94.7545 14.64510454 20994
APRIZESAT 4             
1 35684U 09041D   26166.16666432  .00000554  00000+0  72785-4 0  9991
2 35684  98.1413 241.4469 0042528 329.7444  30.1314 14.83876881911061
APRIZESAT 3             
1 35686U 09041F   26166.15959498  .00001447  00000+0  12913-3 0  9997
2 35686  98.2056 319.2863 0062761  74.2807 286.5324 14.96235077916079
S-NET D                 
1 43186U 18014G   26165.62491195  .00005138  00000+0  26580-3 0  9993
2 43186  97.5371  70.4319 0009168  38.0119 322.1759 15.16651784458376
S-NET B                 
1 43187U 18014H   26165.63631423  .00004632  00000+0  24019-3 0  9998
2 43187  97.5378  70.4300 0009686  33.4028 326.7814 15.16621899458373
S-NET A                 
1 43188U 18014J   26165.62380336  .00005235  00000+0  27069-3 0  9990
2 43188  97.5387  70.6254 0009569  34.0888 326.0957 15.16659834458376
S-NET C                 
1 43189U 18014K   26166.16800196  .00004110  00000+0  21351-3 0  9991
2 43189  97.5401  71.2408 0010676  24.3120 335.8614 15.16617711457009
SALSAT                  
1 46495U 20068K   26165.98698010  .00006897  00000+0  24187-3 0  9999
2 46495  97.8843 168.9175 0008203 317.5916  42.4688 15.29772719315024
OOV-CUBE (TUBSAT-30)    
1 60240U 24128F   26165.72660227  .00001982  00000+0  16016-3 0  9997
2 60240  61.9946 234.1532 0044922 133.1554 227.3306 15.02765736105744
LPNTSAT-001 (IOD-1)     
1 68408U 26065A   26165.90223272  .00002562  00000+0  12699-3 0  9996
2 68408  97.4023  46.4606 0016921  18.5546 341.6301 15.18527662 11910
